CCSDS_OMM_VERS = 2.0
COMMENT GENERATED FROM SPACE-TRACK CATALOG
CREATION_DATE = 2020-065T16:00:00
ORIGINATOR = 18 SPCS
OBJECT_NAME = STARLETTE
OBJECT_ID = 1975-010A
CENTER_NAME = EARTH
REF_FRAME = TEME
TIME_SYSTEM = UTC
MEAN_ELEMENT_THEORY = SGP4
COMMENT mean Keplerian elements
EPOCH = 2020-03-04T10:34:41.4264
MEAN_MOTION = 13.84653757
ECCENTRICITY = 0.0205751
INCLINATION = 49.8237
RA_OF_ASC_NODE = 99.5917
ARG_OF_PERICENTER = 224.3636
MEAN_ANOMALY = 133.6754
EPHEMERIS_TYPE = 0
CLASSIFICATION_TYPE = U
NORAD_CAT_ID = 7646
ELEMENT_SET_NO = 999
REV_AT_EPOCH = 32997
BSTAR = 0.00021071
MEAN_MOTION_DOT = -1.6e-07
MEAN_MOTION_DDOT = 0.0
MASS = 47.0
SOLAR_RAD_AREA = 0.2
SOLAR_RAD_COEFF = 1.2
DRAG_AREA = 0.2
DRAG_COEFF = 2.2
COMMENT covariance in the RTN frame
COV_REF_FRAME = RTN
CX_X = 0.31
CY_X = 0.32
CY_Y = 0.33
CZ_X = 0.34
CZ_Y = 0.35
CZ_Z = 0.36
CX_DOT_X = 0.37
CX_DOT_Y = 0.38
CX_DOT_Z = 0.39
CX_DOT_X_DOT = 0.4
CY_DOT_X = 0.41
CY_DOT_Y = 0.42
CY_DOT_Z = 0.43
CY_DOT_X_DOT = 0.44
CY_DOT_Y_DOT = 0.45
CZ_DOT_X = 0.46
CZ_DOT_Y = 0.47
CZ_DOT_Z = 0.48
CZ_DOT_X_DOT = 0.49
CZ_DOT_Y_DOT = 0.5
CZ_DOT_Z_DOT = 0.51
USER_DEFINED_INTLDES = 1975-010A
